[{"OBJECT_NAME":"GRUS-1E","OBJECT_ID":"2021-022D","EPOCH":"2026-03-09T21:59:56.793984","MEAN_MOTION":14.99580708,"ECCENTRICITY":0.00128752,"INCLINATION":97.5572,"RA_OF_ASC_NODE":316.384,"ARG_OF_PERICENTER":314.1526,"MEAN_ANOMALY":45.8638,"EPHEMERIS_TYPE":0,"CLASSIFICATION_TYPE":"U","NORAD_CAT_ID":47935,"ELEMENT_SET_NO":999,"REV_AT_EPOCH":27107,"BSTAR":0.00017718433,"MEAN_MOTION_DOT":2.125e-5,"MEAN_MOTION_DDOT":0},{"OBJECT_NAME":"STARLINK-3043","OBJECT_ID":"2021-082BB","EPOCH":"2026-03-09T21:55:52.298400","MEAN_MOTION":14.98316627,"ECCENTRICITY":0.00018785,"INCLINATION":69.9994,"RA_OF_ASC_NODE":253.8771,"ARG_OF_PERICENTER":271.8402,"MEAN_ANOMALY":88.2542,"EPHEMERIS_TYPE":0,"CLASSIFICATION_TYPE":"U","NORAD_CAT_ID":49179,"ELEMENT_SET_NO":999,"REV_AT_EPOCH":24699,"BSTAR":0.00024395893,"MEAN_MOTION_DOT":2.818e-5,"MEAN_MOTION_DDOT":0}]
